NORAD_CAT_ID,OBJECT_NAME,OBJECT_TYPE,EPOCH,MEAN_MOTION,ECCENTRICITY,INCLINATION,RA_OF_ASC_NODE,ARG_OF_PERICENTER,MEAN_ANOMALY,BSTAR,MEAN_MOTION_DOT,MEAN_MOTION_DDOT,TLE_LINE0,TLE_LINE1,TLE_LINE2,SEMIMAJOR_AXIS,PERIOD,APOGEE,PERIGEE,DECAYED
53974.0,STARLINK-5159,PAYLOAD,2022-10-20 04:00:00,15.75631661,0.000182,53.2173,21.0207,304.5231,105.5817,-0.0037614,-0.00550715,0.0,0 STARLINK-5159,1 53974U 22125L   22293.16667824 -.00550715  00000-0 -37614-2 0  9996,2 53974  53.2173  21.0207 0001820 304.5231 105.5817 15.75631661  2620,6720.971,91.392,344.06,341.61300000000006,0.0
53974.0,STARLINK-5159,PAYLOAD,2022-10-20 14:00:01,15.7514914,0.0007341,53.2173,18.9544,269.4505,345.1035,-0.0037249,-0.00536291,0.0,0 STARLINK-5159,1 53974U 22125L   22293.58334491 -.00536291  00000-0 -37249-2 0  9990,2 53974  53.2173  18.9544 0007341 269.4505 345.1035 15.75149140  1300,6722.344,91.42,349.144,339.274,0.0
53974.0,STARLINK-5159,PAYLOAD,2022-10-20 22:00:00,15.74770374,0.0005924,53.2174,17.2993,268.945,76.6543,-0.0037966,-0.0053709,0.0,0 STARLINK-5159,1 53974U 22125L   22293.91667824 -.00537090  00000-0 -37966-2 0  9990,2 53974  53.2174  17.2993 0005924 268.9450  76.6543 15.74770374  1307,6723.422,91.442,349.27,341.3040000000001,0.0
53974.0,STARLINK-5159,PAYLOAD,2022-10-21 12:00:00,15.74112743,0.0001337,53.2175,14.4082,19.217,34.61,-0.0040062,-0.00548883,0.0,0 STARLINK-5159,1 53974U 22125L   22294.50001157 -.00548883  00000-0 -40062-2 0  9990,2 53974  53.2175  14.4082 0001337  19.2170  34.6100 15.74112743  2838,6725.294,91.48,348.05800000000005,346.26,0.0
53974.0,STARLINK-5159,PAYLOAD,2022-10-21 14:00:01,15.74016283,0.0001481,53.2177,13.9956,28.5718,137.7461,-0.0040041,-0.00546481,0.0,0 STARLINK-5159,1 53974U 22125L   22294.58334491 -.00546481  00000-0 -40041-2 0  9997,2 53974  53.2177  13.9956 0001481  28.5718 137.7461 15.74016283  1303,6725.569,91.486,348.43,346.43800000000016,0.0
53974.0,STARLINK-5159,PAYLOAD,2022-10-21 22:00:00,15.73548446,0.0001195,53.2181,12.3438,49.5961,206.414,-0.0020715,-0.00285921,0.0,0 STARLINK-5159,1 53974U 22125L   22294.91667824 -.00285921  00000-0 -20715-2 0  9998,2 53974  53.2181  12.3438 0001195  49.5961 206.4140 15.73548446  1309,6726.901999999999,91.513,349.571,347.963,0.0
53974.0,STARLINK-5159,PAYLOAD,2022-10-22 04:00:00,15.73401154,0.0001204,53.2173,11.1045,55.2236,177.7259,-0.0020245999999999,-0.00277958,0.0,0 STARLINK-5159,1 53974U 22125L   22295.16667824 -.00277958  00000-0 -20246-2 0  9996,2 53974  53.2173  11.1045 0001204  55.2236 177.7259 15.73401154  2947,6727.321999999999,91.521,349.997,348.37699999999984,0.0
53974.0,STARLINK-5159,PAYLOAD,2022-10-22 12:00:00,15.73198366,0.000172,53.2217,9.4653,48.8288,273.0938,0.00031629,0.00043999,0.0,0 STARLINK-5159,1 53974U 22125L   22295.50001157  .00043999  00000-0  31629-3 0  9997,2 53974  53.2217   9.4653 0001720  48.8288 273.0938 15.73198366  2996,6727.9,91.533,350.922,348.608,0.0
53974.0,STARLINK-5159,PAYLOAD,2022-10-22 14:00:01,15.73190447,0.0001724,53.2218,9.0534,47.1896,26.9693,0.00059941,0.00084318,0.0,0 STARLINK-5159,1 53974U 22125L   22295.58334491  .00084318  00000-0  59941-3 0  9992,2 53974  53.2218   9.0534 0001724  47.1896  26.9693 15.73190447  1301,6727.922,91.534,350.94699999999995,348.62800000000016,0.0
53974.0,STARLINK-5159,PAYLOAD,2022-10-22 20:00:01,15.732850199999998,0.0001683,53.2206,7.8155,44.2516,6.62,6.396800000000001e-05,8.398e-05,0.0,0 STARLINK-5159,1 53974U 22125L   22295.83334491  .00008398  00000-0  63968-4 0  9999,2 53974  53.2206   7.8155 0001683  44.2516   6.6200 15.73285020  3048,6727.653,91.528,350.65,348.386,0.0
53974.0,STARLINK-5159,PAYLOAD,2022-10-22 22:00:00,15.73312346,0.0001603,53.2206,7.4025,46.1519,116.9697,-0.00033848,-0.00048083,0.0,0 STARLINK-5159,1 53974U 22125L   22295.91667824 -.00048083  00000-0 -33848-3 0  9997,2 53974  53.2206   7.4025 0001603  46.1519 116.9697 15.73312346  1300,6727.575,91.527,350.51800000000014,348.361,0.0
53974.0,STARLINK-5159,PAYLOAD,2022-10-23 12:00:00,15.73227753,0.0001972,53.2202,4.5171,46.8612,182.1058,-0.00045654,-0.00064287,0.0,0 STARLINK-5159,1 53974U 22125L   22296.50001157 -.00064287  00000-0 -45654-3 0  9996,2 53974  53.2202   4.5171 0001972  46.8612 182.1058 15.73227753  3154,6727.816,91.532,351.0080000000001,348.35400000000016,0.0
53974.0,STARLINK-5159,PAYLOAD,2022-10-23 14:00:01,15.73180975,0.0001982,53.2203,4.105,46.8314,294.384,0.00017809,0.00024426,0.0,0 STARLINK-5159,1 53974U 22125L   22296.58334491  .00024426  00000-0  17809-3 0  9994,2 53974  53.2203   4.1050 0001982  46.8314 294.3840 15.73180975  1301,6727.949000000001,91.534,351.148,348.481,0.0
53974.0,STARLINK-5159,PAYLOAD,2022-10-23 20:00:01,15.73235167,0.0001784,53.2194,2.8669,41.7245,276.1668,-0.00058889,-0.00082589,0.0,0 STARLINK-5159,1 53974U 22125L   22296.83334491 -.00082589  00000-0 -58889-3 0  9991,2 53974  53.2194   2.8669 0001784  41.7245 276.1668 15.73235167  3209,6727.795,91.531,350.86,348.46,0.0
53974.0,STARLINK-5159,PAYLOAD,2022-10-23 22:00:00,15.73223444,0.0001675,53.2194,2.4541,42.7327,27.3972,-0.00053179,-0.00074672,0.0,0 STARLINK-5159,1 53974U 22125L   22296.91667824 -.00074672  00000-0 -53179-3 0  9990,2 53974  53.2194   2.4541 0001675  42.7327  27.3972 15.73223444  1303,6727.828,91.532,350.82,348.566,0.0
53974.0,STARLINK-5159,PAYLOAD,2022-10-24 04:00:01,15.73157069,0.0001593,53.2191,1.2165,45.3051,1.5928,0.0005644,0.00079194,0.0,0 STARLINK-5159,1 53974U 22125L   22297.16668981  .00079194  00000-0  56440-3 0  9999,2 53974  53.2191   1.2165 0001593  45.3051   1.5928 15.73157069  3251,6728.018,91.536,350.954,348.811,0.0
53974.0,STARLINK-5159,PAYLOAD,2022-10-24 12:00:00,15.73192503,0.0001742,53.2189,359.5693,34.9222,100.8236,-0.00022621,-0.00032237,0.0,0 STARLINK-5159,1 53974U 22125L   22297.50001157 -.00032237  00000-0 -22621-3 0  9996,2 53974  53.2189 359.5693 0001742  34.9222 100.8236 15.73192503  3317,6727.917,91.534,350.954,348.61,0.0
53974.0,STARLINK-5159,PAYLOAD,2022-10-24 14:00:01,15.73159214,0.000179,53.2191,359.1574,33.9469,214.0374,0.00019811,0.00027225,0.0,0 STARLINK-5159,1 53974U 22125L   22297.58334491  .00027225  00000-0  19811-3 0  9990,2 53974  53.2191 359.1574 0001790  33.9469 214.0374 15.73159214  1309,6728.011,91.536,351.081,348.672,0.0
53974.0,STARLINK-5159,PAYLOAD,2022-10-24 22:00:00,15.73151039,0.0001701,53.2191,357.5061,39.5449,297.3384,1.5316e-05,1.525e-05,0.0,0 STARLINK-5159,1 53974U 22125L   22297.91667824  .00001525  00000-0  15316-4 0  9998,2 53974  53.2191 357.5061 0001701  39.5449 297.3384 15.73151039  1306,6728.035,91.536,351.0440000000001,348.755,0.0
53974.0,STARLINK-5159,PAYLOAD,2022-10-25 04:00:00,15.73150813,0.0001791,53.2192,356.2685,44.2358,269.2953,0.00074036,0.00104365,0.0,0 STARLINK-5159,1 53974U 22125L   22298.16667824  .00104365  00000-0  74036-3 0  9995,2 53974  53.2192 356.2685 0001791  44.2358 269.2953 15.73150813  3419,6728.035,91.536,351.105,348.695,0.0
53974.0,STARLINK-5159,PAYLOAD,2022-10-25 12:00:00,15.73183574,0.0002023,53.2191,354.6214,39.0092,3.411,0.00031345,0.00043569,0.0,0 STARLINK-5159,1 53974U 22125L   22298.50001157  .00043569  00000-0  31345-3 0  9998,2 53974  53.2191 354.6214 0002023  39.0092   3.4110 15.73183574  3462,6727.941999999999,91.534,351.168,348.446,0.0
53974.0,STARLINK-5159,PAYLOAD,2022-10-25 14:00:01,15.73184679,0.0002015,53.2191,354.2092,36.8915,117.7601,0.00037013,0.00051612,0.0,0 STARLINK-5159,1 53974U 22125L   22298.58334491  .00051612  00000-0  37013-3 0  9992,2 53974  53.2191 354.2092 0002015  36.8915 117.7601 15.73184679  1304,6727.939,91.534,351.16,348.4480000000001,0.0
53974.0,STARLINK-5159,PAYLOAD,2022-10-25 20:00:01,15.7322436,0.0001865999999999,53.2188,352.9708,35.3463,95.9967,-0.00047517,-0.00066854,0.0,0 STARLINK-5159,1 53974U 22125L   22298.83334491 -.00066854  00000-0 -47517-3 0  9996,2 53974  53.2188 352.9708 0001866  35.3463  95.9967 15.73224360  3524,6727.826,91.532,350.946,348.435,0.0
53974.0,STARLINK-5159,PAYLOAD,2022-10-25 22:00:01,15.73180945,0.0001805,53.2189,352.5579,36.2907,207.3643,0.00010606,0.00014278,0.0,0 STARLINK-5159,1 53974U 22125L   22298.91668981  .00014278  00000-0  10606-3 0  9999,2 53974  53.2189 352.5579 0001805  36.2907 207.3643 15.73180945  1307,6727.95,91.534,351.029,348.6,0.0
53974.0,STARLINK-5159,PAYLOAD,2022-10-26 04:00:00,15.73200466,0.0001702,53.2187,351.3207,39.1083,181.158,0.0002384,0.0003297,0.0,0 STARLINK-5159,1 53974U 22125L   22299.16667824  .00032970  00000-0  23840-3 0  9995,2 53974  53.2187 351.3207 0001702  39.1083 181.1580 15.73200466  3574,6727.894,91.533,350.904,348.61400000000015,0.0
53974.0,STARLINK-5159,PAYLOAD,2022-10-26 14:00:01,15.73178122,0.0001938,53.2184,349.2611,30.5644,30.8904,0.0006973,0.00098304,0.0,0 STARLINK-5159,1 53974U 22125L   22299.58334491  .00098304  00000-0  69730-3 0  9993,2 53974  53.2184 349.2611 0001938  30.5644  30.8904 15.73178122  1307,6727.958000000001,91.534,351.126,348.519,0.0
53974.0,STARLINK-5159,PAYLOAD,2022-10-26 20:00:01,15.73271313,0.0001808,53.2185,348.0225,29.9348,8.2134,-0.00060016,-0.00084271,0.0,0 STARLINK-5159,1 53974U 22125L   22299.83334491 -.00084271  00000-0 -60016-3 0  9999,2 53974  53.2185 348.0225 0001808  29.9348   8.2134 15.73271313  3677,6727.691999999999,91.529,350.773,348.34,0.0
53974.0,STARLINK-5159,PAYLOAD,2022-10-26 22:00:00,15.73253314,0.000175,53.2186,347.6096,30.6764,119.7237,-0.00049164,-0.00069214,0.0,0 STARLINK-5159,1 53974U 22125L   22299.91667824 -.00069214  00000-0 -49164-3 0  9998,2 53974  53.2186 347.6096 0001750  30.6764 119.7237 15.73253314  1307,6727.743,91.53,350.786,348.431,0.0
53974.0,STARLINK-5159,PAYLOAD,2022-10-27 12:00:02,15.73178313,0.0002154999999999,53.2188,344.7245,32.9223,183.2218,0.00057883,0.00081333,0.0,0 STARLINK-5159,1 53974U 22125L   22300.50002315  .00081333  00000-0  57883-3 0  9995,2 53974  53.2188 344.7245 0002155  32.9223 183.2218 15.73178313  3782,6727.956999999999,91.534,351.272,348.372,0.0
